[{"OBJECT_NAME":"MUOS-5","OBJECT_ID":"2016-041A","EPOCH":"2026-04-26T21:36:55.942272","MEAN_MOTION":1.00270809,"ECCENTRICITY":0.01947627,"INCLINATION":2.3139,"RA_OF_ASC_NODE":300.7391,"ARG_OF_PERICENTER":261.6903,"MEAN_ANOMALY":231.8071,"EPHEMERIS_TYPE":0,"CLASSIFICATION_TYPE":"U","NORAD_CAT_ID":41622,"ELEMENT_SET_NO":999,"REV_AT_EPOCH":3657,"BSTAR":0,"MEAN_MOTION_DOT":-1.71e-6,"MEAN_MOTION_DDOT":0},{"OBJECT_NAME":"TIANTONG-1 1","OBJECT_ID":"2016-048A","EPOCH":"2026-04-25T17:30:54.144576","MEAN_MOTION":1.00269141,"ECCENTRICITY":0.00064406,"INCLINATION":3.7515,"RA_OF_ASC_NODE":42.9578,"ARG_OF_PERICENTER":20.2339,"MEAN_ANOMALY":154.645,"EPHEMERIS_TYPE":0,"CLASSIFICATION_TYPE":"U","NORAD_CAT_ID":41725,"ELEMENT_SET_NO":999,"REV_AT_EPOCH":3574,"BSTAR":0,"MEAN_MOTION_DOT":-3.28e-6,"MEAN_MOTION_DDOT":0},{"OBJECT_NAME":"JCSAT-16","OBJECT_ID":"2016-050A","EPOCH":"2026-04-26T22:48:11.607840","MEAN_MOTION":1.00267907,"ECCENTRICITY":0.00011423,"INCLINATION":0.0154,"RA_OF_ASC_NODE":232.8379,"ARG_OF_PERICENTER":179.9348,"MEAN_ANOMALY":288.1739,"EPHEMERIS_TYPE":0,"CLASSIFICATION_TYPE":"U","NORAD_CAT_ID":41729,"ELEMENT_SET_NO":999,"REV_AT_EPOCH":3555,"BSTAR":0,"MEAN_MOTION_DOT":0,"MEAN_MOTION_DDOT":0},{"OBJECT_NAME":"USA 270","OBJECT_ID":"2016-052A","EPOCH":"2026-04-21T06:04:50.988288","MEAN_MOTION":1.00347865,"ECCENTRICITY":0.0003438,"INCLINATION":4.0526,"RA_OF_ASC_NODE":77.8945,"ARG_OF_PERICENTER":320.1673,"MEAN_ANOMALY":82.448,"EPHEMERIS_TYPE":0,"CLASSIFICATION_TYPE":"U","NORAD_CAT_ID":41744,"ELEMENT_SET_NO":999,"REV_AT_EPOCH":2756,"BSTAR":0,"MEAN_MOTION_DOT":6.0e-7,"MEAN_MOTION_DDOT":0},{"OBJECT_NAME":"USA 271","OBJECT_ID":"2016-052B","EPOCH":"2026-04-20T21:15:19.276128","MEAN_MOTION":1.00241576,"ECCENTRICITY":0.0007317,"INCLINATION":4.024,"RA_OF_ASC_NODE":77.9674,"ARG_OF_PERICENTER":143.7849,"MEAN_ANOMALY":69.2738,"EPHEMERIS_TYPE":0,"CLASSIFICATION_TYPE":"U","NORAD_CAT_ID":41745,"ELEMENT_SET_NO":999,"REV_AT_EPOCH":2734,"BSTAR":0,"MEAN_MOTION_DOT":-3.6e-6,"MEAN_MOTION_DDOT":0},{"OBJECT_NAME":"INTELSAT 36 (IS-36)","OBJECT_ID":"2016-053A","EPOCH":"2026-04-26T15:36:13.804992","MEAN_MOTION":1.00270682,"ECCENTRICITY":0.00014261,"INCLINATION":0.0148,"RA_OF_ASC_NODE":322.2759,"ARG_OF_PERICENTER":357.3225,"MEAN_ANOMALY":197.6014,"EPHEMERIS_TYPE":0,"CLASSIFICATION_TYPE":"U","NORAD_CAT_ID":41747,"ELEMENT_SET_NO":999,"REV_AT_EPOCH":3544,"BSTAR":0,"MEAN_MOTION_DOT":-3.6e-7,"MEAN_MOTION_DDOT":0},{"OBJECT_NAME":"INTELSAT 33E (IS-33E)","OBJECT_ID":"2016-053B","EPOCH":"2026-04-26T23:12:21.632256","MEAN_MOTION":1.0016315,"ECCENTRICITY":0.00235134,"INCLINATION":1.4444,"RA_OF_ASC_NODE":84.8917,"ARG_OF_PERICENTER":191.4497,"MEAN_ANOMALY":353.0146,"EPHEMERIS_TYPE":0,"CLASSIFICATION_TYPE":"U","NORAD_CAT_ID":41748,"ELEMENT_SET_NO":999,"REV_AT_EPOCH":3573,"BSTAR":0,"MEAN_MOTION_DOT":8.0e-8,"MEAN_MOTION_DDOT":0},{"OBJECT_NAME":"INSAT-3DR","OBJECT_ID":"2016-054A","EPOCH":"2026-04-26T23:14:27.383136","MEAN_MOTION":1.0027158,"ECCENTRICITY":0.00115781,"INCLINATION":0.1155,"RA_OF_ASC_NODE":86.2537,"ARG_OF_PERICENTER":195.0845,"MEAN_ANOMALY":356.2288,"EPHEMERIS_TYPE":0,"CLASSIFICATION_TYPE":"U","NORAD_CAT_ID":41752,"ELEMENT_SET_NO":999,"REV_AT_EPOCH":3530,"BSTAR":0,"MEAN_MOTION_DOT":-8.8e-7,"MEAN_MOTION_DDOT":0},{"OBJECT_NAME":"GSAT-18","OBJECT_ID":"2016-060A","EPOCH":"2026-04-26T23:12:56.262240","MEAN_MOTION":1.0027145,"ECCENTRICITY":0.0005088,"INCLINATION":0.0665,"RA_OF_ASC_NODE":83.0684,"ARG_OF_PERICENTER":335.2461,"MEAN_ANOMALY":218.889,"EPHEMERIS_TYPE":0,"CLASSIFICATION_TYPE":"U","NORAD_CAT_ID":41793,"ELEMENT_SET_NO":999,"REV_AT_EPOCH":3501,"BSTAR":0,"MEAN_MOTION_DOT":-8.8e-7,"MEAN_MOTION_DDOT":0},{"OBJECT_NAME":"SKY MUSTER 2 (NBN1B)","OBJECT_ID":"2016-060B","EPOCH":"2026-04-26T20:56:48.346656","MEAN_MOTION":1.00273221,"ECCENTRICITY":0.00017402,"INCLINATION":0.0156,"RA_OF_ASC_NODE":261.5652,"ARG_OF_PERICENTER":127.4937,"MEAN_ANOMALY":284.8091,"EPHEMERIS_TYPE":0,"CLASSIFICATION_TYPE":"U","NORAD_CAT_ID":41794,"ELEMENT_SET_NO":999,"REV_AT_EPOCH":3500,"BSTAR":0,"MEAN_MOTION_DOT":-2.55e-6,"MEAN_MOTION_DDOT":0},{"OBJECT_NAME":"HIMAWARI-9","OBJECT_ID":"2016-064A","EPOCH":"2026-04-26T14:14:14.168256","MEAN_MOTION":1.00272038,"ECCENTRICITY":8.61e-5,"INCLINATION":0.0377,"RA_OF_ASC_NODE":124.5813,"ARG_OF_PERICENTER":283.3117,"MEAN_ANOMALY":161.0242,"EPHEMERIS_TYPE":0,"CLASSIFICATION_TYPE":"U","NORAD_CAT_ID":41836,"ELEMENT_SET_NO":999,"REV_AT_EPOCH":3469,"BSTAR":0,"MEAN_MOTION_DOT":-2.87e-6,"MEAN_MOTION_DDOT":0},{"OBJECT_NAME":"SHIJIAN-17 (SJ-17)","OBJECT_ID":"2016-065A","EPOCH":"2026-04-26T20:11:11.891904","MEAN_MOTION":0.99863989,"ECCENTRICITY":0.0001546,"INCLINATION":5.625,"RA_OF_ASC_NODE":73.2065,"ARG_OF_PERICENTER":350.1727,"MEAN_ANOMALY":46.7773,"EPHEMERIS_TYPE":0,"CLASSIFICATION_TYPE":"U","NORAD_CAT_ID":41838,"ELEMENT_SET_NO":999,"REV_AT_EPOCH":3469,"BSTAR":0,"MEAN_MOTION_DOT":-2.86e-6,"MEAN_MOTION_DDOT":0},{"OBJECT_NAME":"YZ-2 R/B","OBJECT_ID":"2016-065C","EPOCH":"2026-04-26T00:19:45.740640","MEAN_MOTION":0.93473924,"ECCENTRICITY":0.04653771,"INCLINATION":9.2357,"RA_OF_ASC_NODE":67.0882,"ARG_OF_PERICENTER":231.0187,"MEAN_ANOMALY":124.7185,"EPHEMERIS_TYPE":0,"CLASSIFICATION_TYPE":"U","NORAD_CAT_ID":41840,"ELEMENT_SET_NO":999,"REV_AT_EPOCH":3236,"BSTAR":0,"MEAN_MOTION_DOT":-1.74e-6,"MEAN_MOTION_DDOT":0},{"OBJECT_NAME":"GOES 16","OBJECT_ID":"2016-071A","EPOCH":"2026-04-26T21:37:33.381984","MEAN_MOTION":1.00271206,"ECCENTRICITY":0.00014998,"INCLINATION":0.213,"RA_OF_ASC_NODE":85.2891,"ARG_OF_PERICENTER":251.0284,"MEAN_ANOMALY":98.2535,"EPHEMERIS_TYPE":0,"CLASSIFICATION_TYPE":"U","NORAD_CAT_ID":41866,"ELEMENT_SET_NO":999,"REV_AT_EPOCH":3458,"BSTAR":0,"MEAN_MOTION_DOT":-1.02e-6,"MEAN_MOTION_DDOT":0},{"OBJECT_NAME":"TIANLIAN 1-04","OBJECT_ID":"2016-072A","EPOCH":"2026-04-26T21:51:50.605632","MEAN_MOTION":1.00272461,"ECCENTRICITY":0.00401359,"INCLINATION":0.7351,"RA_OF_ASC_NODE":83.0729,"ARG_OF_PERICENTER":92.1597,"MEAN_ANOMALY":184.4139,"EPHEMERIS_TYPE":0,"CLASSIFICATION_TYPE":"U","NORAD_CAT_ID":41869,"ELEMENT_SET_NO":999,"REV_AT_EPOCH":3478,"BSTAR":0,"MEAN_MOTION_DOT":2.0e-7,"MEAN_MOTION_DDOT":0},{"OBJECT_NAME":"WGS F8 (USA 272)","OBJECT_ID":"2016-075A","EPOCH":"2026-04-26T19:35:38.596416","MEAN_MOTION":1.00272516,"ECCENTRICITY":4.567e-5,"INCLINATION":0.0134,"RA_OF_ASC_NODE":281.4185,"ARG_OF_PERICENTER":217.6873,"MEAN_ANOMALY":159.4177,"EPHEMERIS_TYPE":0,"CLASSIFICATION_TYPE":"U","NORAD_CAT_ID":41879,"ELEMENT_SET_NO":999,"REV_AT_EPOCH":3430,"BSTAR":0,"MEAN_MOTION_DOT":-2.14e-6,"MEAN_MOTION_DDOT":0},{"OBJECT_NAME":"FENGYUN 4A","OBJECT_ID":"2016-077A","EPOCH":"2026-04-26T22:42:42.134400","MEAN_MOTION":1.00266708,"ECCENTRICITY":0.00081143,"INCLINATION":2.1949,"RA_OF_ASC_NODE":80.7916,"ARG_OF_PERICENTER":141.1904,"MEAN_ANOMALY":97.3367,"EPHEMERIS_TYPE":0,"CLASSIFICATION_TYPE":"U","NORAD_CAT_ID":41882,"ELEMENT_SET_NO":999,"REV_AT_EPOCH":3441,"BSTAR":0,"MEAN_MOTION_DOT":-3.66e-6,"MEAN_MOTION_DDOT":0}]
